ONEWEB-0056             
1 45159U 20008AE  25225.57198592  .00000306  00000+0  84141-3 0  9995
2 45159  87.8778  97.6179 0001759  81.4362 278.6965 13.10369861267899
ONEWEB-0057             
1 45160U 20008AF  25225.57944781 -.00000077  00000+0 -25563-3 0  9996
2 45160  87.8778  97.6303 0001851  84.8370 275.2969 13.10370468268061
ONEWEB-0058             
1 45161U 20008AG  25225.56631717  .00000545  00000+0  15252-2 0  9999
2 45161  87.8777  97.6433 0001803  75.4831 284.6496 13.10371120268133
ONEWEB-0059             
1 45162U 20008AH  25225.56285820  .00000639  00000+0  17944-2 0  9994
2 45162  87.8781  97.6434 0001772  75.3803 284.7521 13.10371824268033
ONEWEB-0062             
1 45163U 20008AJ  25225.58856674 -.00000493  00000+0 -14481-2 0  9991
2 45163  87.8775  97.6172 0001449  72.1772 287.9513 13.10370269267900
ONEWEB-0065             
1 45164U 20008AK  25225.56865059  .00000429  00000+0  11937-2 0  9997
2 45164  87.8777  97.6463 0001807  91.6519 268.4815 13.10368809267590
ONEWEB-0066             
1 45424U 20020A   25225.59440655  .00000569  00000+0  15706-2 0  9997
2 45424  87.8794  82.3616 0002003  82.0506 278.0849 13.11419336262365
ONEWEB-0067             
1 45425U 20020B   25225.55552873 -.00000461  00000+0 -13374-2 0  9992
2 45425  87.8784  82.2791 0001928  83.6865 276.4482 13.11418673262412
